{"type": "FeatureCollection", "features": [ {"type": "Feature", "properties": {"norad_id": 38717, "name": "FENGYUN 1C DEB", "group": "fengyun-1c-debris", "lat": 21.374197697563677, "lon": -166.19128443916796, "alt_km": 865.7223472916612, "timestamp": "2025-12-20T16:47:36.576834+00:00", "meta": {"OBJECT_NAME": "FENGYUN 1C DEB", "OBJECT_ID": "1999-025ETJ", "EPOCH": "2025-12-16T19:52:31.389312", "MEAN_MOTION": 14.19963624, "ECCENTRICITY": 0.00567162, "INCLINATION": 99.1594, "RA_OF_ASC_NODE": 6.1834, "ARG_OF_PERICENTER": 342.3119, "MEAN_ANOMALY": 195.7889, "EPHEMERIS_TYPE": 0, "CLASSIFICATION_TYPE": "U", "NORAD_CAT_ID": 38717, "ELEMENT_SET_NO": 999, "REV_AT_EPOCH": 58484, "BSTAR": 0.001367751, "MEAN_MOTION_DOT": 2.907e-05, "MEAN_MOTION_DDOT": 0}, "tle": {"line1": "1 38717U 99025ETJ 25350.82814108  .00002907  00000+0  13678-2 0  9992", "line2": "2 38717  99.1594   6.1834 0056716 342.3119 195.7889 14.19963624584846"}}, "geometry": {"type": "Point", "coordinates": [-166.19128443916796, 21.374197697563677]}}, {"type": "Feature", "properties": {"norad_id": 38722, "name": "FENGYUN 1C DEB", "group": "fengyun-1c-debris", "lat": -34.07790897297056, "lon": -92.39051335561598, "alt_km": 786.766131976713, "timestamp": "2025-12-20T16:47:36.576844+00:00", "meta": {"OBJECT_NAME": "FENGYUN 1C DEB", "OBJECT_ID": "1999-025ETP", "EPOCH": "2025-12-17T02:12:43.977024", "MEAN_MOTION": 14.58521186, "ECCENTRICITY": 0.0146561, "INCLINATION": 99.3535, "RA_OF_ASC_NODE": 89.9539, "ARG_OF_PERICENTER": 81.7471, "MEAN_ANOMALY": 280.0316, "EPHEMERIS_TYPE": 0, "CLASSIFICATION_TYPE": "U", "NORAD_CAT_ID": 38722, "ELEMENT_SET_NO": 999, "REV_AT_EPOCH": 70527, "BSTAR": 0.0018586815, "MEAN_MOTION_DOT": 9.973e-05, "MEAN_MOTION_DDOT": 0}, "tle": {"line1": "1 38722U 99025ETP 25351.09217566  .00009973  00000+0  18587-2 0  9997", "line2": "2 38722  99.3535  89.9539 0146561  81.7471 280.0316 14.58521186705274"}}, "geometry": {"type": "Point", "coordinates": [-92.39051335561598, -34.07790897297056]}}, {"type": "Feature", "properties": {"norad_id": 38725, "name": "FENGYUN 1C DEB", "group": "fengyun-1c-debris", "lat": -6.260864154346697, "lon": 121.22962517216769, "alt_km": 765.0314442311337, "timestamp": "2025-12-20T16:47:36.576854+00:00", "meta": {"OBJECT_NAME": "FENGYUN 1C DEB", "OBJECT_ID": "1999-025ETS", "EPOCH": "2025-12-17T07:16:31.480896", "MEAN_MOTION": 14.42909835, "ECCENTRICITY": 0.00350733, "INCLINATION": 98.8709, "RA_OF_ASC_NODE": 116.7145, "ARG_OF_PERICENTER": 243.5094, "MEAN_ANOMALY": 116.2496, "EPHEMERIS_TYPE": 0, "CLASSIFICATION_TYPE": "U", "NORAD_CAT_ID": 38725, "ELEMENT_SET_NO": 999, "REV_AT_EPOCH": 73418, "BSTAR": 0.0021269674, "MEAN_MOTION_DOT": 7.121e-05, "MEAN_MOTION_DDOT": 0}, "tle": {"line1": "1 38725U 99025ETS 25351.30314214  .00007121  00000+0  21270-2 0  9998", "line2": "2 38725  98.8709 116.7145 0035073 243.5094 116.2496 14.42909835734185"}}, "geometry": {"type": "Point", "coordinates": [121.22962517216769, -6.260864154346697]}}, {"type": "Feature", "properties": {"norad_id": 38726, "name": "FENGYUN 1C DEB", "group": "fengyun-1c-debris", "lat": -79.3898356481092, "lon": 140.98076606531262, "alt_km": 576.42979096825, "timestamp": "2025-12-20T16:47:36.576864+00:00", "meta": {"OBJECT_NAME": "FENGYUN 1C DEB", "OBJECT_ID": "1999-025ETT", "EPOCH": "2025-12-18T07:44:42.644256", "MEAN_MOTION": 15.04018095, "ECCENTRICITY": 0.00236822, "INCLINATION": 99.1359, "RA_OF_ASC_NODE": 17.3874, "ARG_OF_PERICENTER": 108.0917, "MEAN_ANOMALY": 252.2886, "EPHEMERIS_TYPE": 0, "CLASSIFICATION_TYPE": "U", "NORAD_CAT_ID": 38726, "ELEMENT_SET_NO": 999, "REV_AT_EPOCH": 69939, "BSTAR": 0.0056393313, "MEAN_MOTION_DOT": 0.00079186, "MEAN_MOTION_DDOT": 0}, "tle": {"line1": "1 38726U 99025ETT 25352.32271579  .00079186  00000+0  56393-2 0  9992", "line2": "2 38726  99.1359  17.3874 0023682 108.0917 252.2886 15.04018095699393"}}, "geometry": {"type": "Point", "coordinates": [140.98076606531262, -79.3898356481092]}}, {"type": "Feature", "properties": {"norad_id": 38728, "name": "FENGYUN 1C DEB", "group": "fengyun-1c-debris", "lat": -47.054992654500595, "lon": -6.792866598200127, "alt_km": 654.5595830847442, "timestamp": "2025-12-20T16:47:36.576874+00:00", "meta": {"OBJECT_NAME": "FENGYUN 1C DEB", "OBJECT_ID": "1999-025ETV", "EPOCH": "2025-12-18T04:52:33.180384", "MEAN_MOTION": 14.70670861, "ECCENTRICITY": 0.00750743, "INCLINATION": 99.2585, "RA_OF_ASC_NODE": 340.2802, "ARG_OF_PERICENTER": 38.2663, "MEAN_ANOMALY": 24.4324, "EPHEMERIS_TYPE": 0, "CLASSIFICATION_TYPE": "U", "NORAD_CAT_ID": 38728, "ELEMENT_SET_NO": 999, "REV_AT_EPOCH": 65691, "BSTAR": 0.0011739041, "MEAN_MOTION_DOT": 7.408e-05, "MEAN_MOTION_DDOT": 0}, "tle": {"line1": "1 38728U 99025ETV 25352.20316181  .00007408  00000+0  11739-2 0  9993", "line2": "2 38728  99.2585 340.2802 0075074  38.2663  24.4324 14.70670861656914"}}, "geometry": {"type": "Point", "coordinates": [-6.792866598200127, -47.054992654500595]}}, {"type": "Feature", "properties": {"norad_id": 38789, "name": "FENGYUN 1C DEB", "group": "fengyun-1c-debris", "lat": -79.14482399737885, "lon": 6.729322591989341, "alt_km": 763.6084054026533, "timestamp": "2025-12-20T16:47:36.576884+00:00", "meta": {"OBJECT_NAME": "FENGYUN 1C DEB", "OBJECT_ID": "1999-025EUD", "EPOCH": "2025-12-16T11:04:27.892416", "MEAN_MOTION": 14.45831603, "ECCENTRICITY": 0.02075268, "INCLINATION": 98.8566, "RA_OF_ASC_NODE": 236.7044, "ARG_OF_PERICENTER": 14.1855, "MEAN_ANOMALY": 164.1034, "EPHEMERIS_TYPE": 0, "CLASSIFICATION_TYPE": "U", "NORAD_CAT_ID": 38789, "ELEMENT_SET_NO": 999, "REV_AT_EPOCH": 61899, "BSTAR": 0.00050950207, "MEAN_MOTION_DOT": 2.303e-05, "MEAN_MOTION_DDOT": 0}, "tle": {"line1": "1 38789U 99025EUD 25350.46143394  .00002303  00000+0  50950-3 0  9998", "line2": "2 38789  98.8566 236.7044 0207526  14.1855 164.1034 14.45831603618998"}}, "geometry": {"type": "Point", "coordinates": [6.729322591989341, -79.14482399737885]}}, {"type": "Feature", "properties": {"norad_id": 38795, "name": "FENGYUN 1C DEB", "group": "fengyun-1c-debris", "lat": -36.52904626686494, "lon": 22.95227545242246, "alt_km": 1114.7939250675245, "timestamp": "2025-12-20T16:47:36.576895+00:00", "meta": {"OBJECT_NAME": "FENGYUN 1C DEB", "OBJECT_ID": "1999-025EUK", "EPOCH": "2025-12-19T08:28:58.853280", "MEAN_MOTION": 13.29929799, "ECCENTRICITY": 0.050261, "INCLINATION": 98.6991, "RA_OF_ASC_NODE": 15.2992, "ARG_OF_PERICENTER": 239.3725, "MEAN_ANOMALY": 115.6931, "EPHEMERIS_TYPE": 0, "CLASSIFICATION_TYPE": "U", "NORAD_CAT_ID": 38795, "ELEMENT_SET_NO": 999, "REV_AT_EPOCH": 78600, "BSTAR": 0.0020267, "MEAN_MOTION_DOT": 1.866e-05, "MEAN_MOTION_DDOT": 0}, "tle": {"line1": "1 38795U 99025EUK 25353.35345895  .00001866  00000+0  20267-2 0  9996", "line2": "2 38795  98.6991  15.2992 0502610 239.3725 115.6931 13.29929799786006"}}, "geometry": {"type": "Point", "coordinates": [22.95227545242246, -36.52904626686494]}}, {"type": "Feature", "properties": {"norad_id": 38797, "name": "FENGYUN 1C DEB", "group": "fengyun-1c-debris", "lat": -37.25349407494214, "lon": -105.36363213065025, "alt_km": 1127.0724245280262, "timestamp": "2025-12-20T16:47:36.576905+00:00", "meta": {"OBJECT_NAME": "FENGYUN 1C DEB", "OBJECT_ID": "1999-025EUM", "EPOCH": "2025-12-19T11:00:18.573984", "MEAN_MOTION": 13.61613226, "ECCENTRICITY": 0.0244911, "INCLINATION": 99.4844, "RA_OF_ASC_NODE": 246.126, "ARG_OF_PERICENTER": 204.101, "MEAN_ANOMALY": 154.8513, "EPHEMERIS_TYPE": 0, "CLASSIFICATION_TYPE": "U", "NORAD_CAT_ID": 38797, "ELEMENT_SET_NO": 999, "REV_AT_EPOCH": 59374, "BSTAR": 0.00016885, "MEAN_MOTION_DOT": 1.14e-06, "MEAN_MOTION_DDOT": 0}, "tle": {"line1": "1 38797U 99025EUM 25353.45854831  .00000114  00000+0  16885-3 0  9991", "line2": "2 38797  99.4844 246.1260 0244911 204.1010 154.8513 13.61613226593740"}}, "geometry": {"type": "Point", "coordinates": [-105.36363213065025, -37.25349407494214]}}, {"type": "Feature", "properties": {"norad_id": 38799, "name": "FENGYUN 1C DEB", "group": "fengyun-1c-debris", "lat": -57.00487708265601, "lon": 83.28918575937435, "alt_km": 630.1487932063847, "timestamp": "2025-12-20T16:47:36.576927+00:00", "meta": {"OBJECT_NAME": "FENGYUN 1C DEB", "OBJECT_ID": "1999-025EUP", "EPOCH": "2025-12-17T22:45:09.703872", "MEAN_MOTION": 14.48783843, "ECCENTRICITY": 0.01634283, "INCLINATION": 98.4059, "RA_OF_ASC_NODE": 67.3844, "ARG_OF_PERICENTER": 334.4042, "MEAN_ANOMALY": 24.9125, "EPHEMERIS_TYPE": 0, "CLASSIFICATION_TYPE": "U", "NORAD_CAT_ID": 38799, "ELEMENT_SET_NO": 999, "REV_AT_EPOCH": 64114, "BSTAR": 0.00068941476, "MEAN_MOTION_DOT": 3.031e-05, "MEAN_MOTION_DDOT": 0}, "tle": {"line1": "1 38799U 99025EUP 25351.94802898  .00003031  00000+0  68941-3 0  9992", "line2": "2 38799  98.4059  67.3844 0163428 334.4042  24.9125 14.48783843641148"}}, "geometry": {"type": "Point", "coordinates": [83.28918575937435, -57.00487708265601]}}, {"type": "Feature", "properties": {"norad_id": 38801, "name": "FENGYUN 1C DEB", "group": "fengyun-1c-debris", "lat": -68.03826132003839, "lon": -156.45182498068363, "alt_km": 760.4935878949827, "timestamp": "2025-12-20T16:47:36.576938+00:00", "meta": {"OBJECT_NAME": "FENGYUN 1C DEB", "OBJECT_ID": "1999-025EUR", "EPOCH": "2025-12-14T23:38:20.156064", "MEAN_MOTION": 14.2482334, "ECCENTRICITY": 0.03468339, "INCLINATION": 98.3742, "RA_OF_ASC_NODE": 39.5088, "ARG_OF_PERICENTER": 345.3815, "MEAN_ANOMALY": 131.5103, "EPHEMERIS_TYPE": 0, "CLASSIFICATION_TYPE": "U", "NORAD_CAT_ID": 38801, "ELEMENT_SET_NO": 999, "REV_AT_EPOCH": 64392, "BSTAR": 0.00040763026, "MEAN_MOTION_DOT": 1.732e-05, "MEAN_MOTION_DDOT": 0}, "tle": {"line1": "1 38801U 99025EUR 25348.98495551  .00001732  00000+0  40763-3 0  9998", "line2": "2 38801  98.3742  39.5088 0346833 345.3815 131.5103 14.24823340643923"}}, "geometry": {"type": "Point", "coordinates": [-156.45182498068363, -68.03826132003839]}}]}